GPS BIIA-10 (PRN 32)    
1 20959U 90103A   08210.00891216 -.00000046  00000-0  10000-3 0  9171
2 20959  55.4815 295.9856 0141537 284.9730  73.5201  2.00546596129404
GPS BIIA-11 (PRN 24)    
1 21552U 91047A   08210.21795467  .00000088  00000-0  10000-3 0  9572
2 21552  54.5784 234.0450 0077868 317.4805  41.9855  2.00563939124996
GPS BIIA-12 (PRN 25)    
1 21890U 92009A   08210.71727879 -.00000038  00000-0  10000-3 0  9614
2 21890  55.3368  45.6506 0118751 288.5183  70.2497  2.00560952120388
GPS BIIA-14 (PRN 26)    
1 22014U 92039A   08210.31990857 -.00000084  00000-0  10000-3 0  5022
2 22014  56.9208 353.8215 0189979  54.0258 307.7241  2.00571071111140
GPS BIIA-15 (PRN 27)    
1 22108U 92058A   08210.75178544 -.00000036  00000-0  10000-3 0  7351
2 22108  55.5922  47.6625 0214168 263.0362  94.5936  2.00554623116334
GPS BIIA-21 (PRN 09)    
1 22700U 93042A   08209.44708096 -.00000036  00000-0  10000-3 0  1329
2 22700  55.7007  49.0803 0198649  81.5352 280.7751  2.00565137110463
GPS BIIA-22 (PRN 05)    
1 22779U 93054A   08206.05466032 -.00000002  00000-0  10000-3 0  6433
2 22779  54.0377 106.0056 0087698  70.7289 290.2655  2.00576117109158
GPS BIIA-23 (PRN 04)    
1 22877U 93068A   08210.08337581  .00000089  00000-0  10000-3 0  4297
2 22877  53.9980 231.6397 0080757  20.3947 339.9851  2.00576848108125
GPS BIIA-24 (PRN 06)    
1 23027U 94016A   08209.77894257  .00000044  00000-0  10000-3 0  4652
2 23027  53.4898 168.7399 0061295 266.7514  92.5217  2.00556969105420
GPS BIIA-25 (PRN 03)    
1 23833U 96019A   08209.79555022  .00000036  00000-0  10000-3 0  6415
2 23833  53.0571 165.0065 0106772  46.7667 314.0891  2.00561224 90405
GPS BIIA-26 (PRN 10)    
1 23953U 96041A   08210.21710929 -.00000039  00000-0  10000-3 0   723
2 23953  55.1657 292.5688 0079113  31.1544 329.3656  2.00564405 88200
GPS BIIA-27 (PRN 30)    
1 24320U 96056A   08210.07642564 -.00000033  00000-0  10000-3 0  8295
2 24320  54.3864 108.8191 0106025  79.1636 282.0597  2.00558822 86860
GPS BIIR-02 (PRN 13)    
1 24876U 97035A   08209.67023004 -.00000080  00000-0  10000-3 0  6105
2 24876  57.0445 353.9295 0035748  86.3969 274.0215  2.00572039 80724
GPS BIIA-28 (PRN 08)    
1 25030U 97067A   08209.79632772 -.00000032  00000-0  10000-3 0  5155
2 25030  56.4015  54.2397 0103203 166.0348 194.3138  2.00557305 78629
GPS BIIR-03 (PRN 11)    
1 25933U 99055A   08209.94564517  .00000089  00000-0  10000-3 0   813
2 25933  51.0461 219.9828 0080567  33.1990 327.3439  2.00566864 64548
GPS BIIR-04 (PRN 20)    
1 26360U 00025A   08210.03528171 -.00000034  00000-0  10000-3 0  1750
2 26360  54.2302 290.0721 0033203  78.2308 282.2015  2.00548184 60249
GPS BIIR-05 (PRN 28)    
1 26407U 00040A   08209.88731521 -.00000030  00000-0  10000-3 0  1166
2 26407  55.2435 112.7162 0140617 240.9730 117.6386  2.00558626 58918
GPS BIIR-06 (PRN 14)    
1 26605U 00071A   08209.48075304 -.00000080  00000-0  10000-3 0  1127
2 26605  56.6812 352.9276 0040457 236.7717 122.8462  2.00559831 56500
GPS BIIR-07 (PRN 18)    
1 26690U 01004A   08209.84618937 -.00000042  00000-0  10000-3 0    07
2 26690  54.2530 293.1573 0097192 218.3713 140.9891  2.00560553 54925
GPS BIIR-08 (PRN 16)    
1 27663U 03005A   08209.69733176 -.00000029  00000-0  10000-3 0  3746
2 27663  55.3489 112.2327 0048736 332.0490  27.7144  2.00568335 40277
GPS BIIR-09 (PRN 21)    
1 27704U 03010A   08209.27007300  .00000088  00000-0  10000-3 0  2603
2 27704  53.6216 232.5396 0142872 206.4818 152.8441  2.00559474 39056
GPS BIIR-10 (PRN 22)    
1 28129U 03058A   08209.39544899 -.00000043  00000-0  10000-3 0  8955
2 28129  54.1188 293.5391 0051567 255.9046 103.5788  2.00564489 33767
GPS BIIR-11 (PRN 19)    
1 28190U 04009A   08209.83754367  .00000056  00000-0  10000-3 0  8225
2 28190  54.8570 175.1442 0049653 325.3925  34.2575  2.00559748 31944
GPS BIIR-12 (PRN 23)    
1 28361U 04023A   08209.62794803 -.00000084  00000-0  10000-3 0  6564
2 28361  55.6576 351.3620 0056419 161.4108 198.8057  2.00559105 30022
GPS BIIR-13 (PRN 02)    
1 28474U 04045A   08203.14299871  .00000062  00000-0  10000-3 0  5338
2 28474  54.0376 230.8448 0086471 150.7066 209.8364  2.00554361 27256
GPS BIIRM-1 (PRN 17)    
1 28874U 05038A   08209.98160033  .00000048  00000-0  10000-3 0  7886
2 28874  54.9862 171.8699 0037224 205.7845 154.0073  2.00551309 20811
GPS BIIRM-2 (PRN 31)    
1 29486U 06042A   08210.58793016 -.00000034  00000-0  10000-3 0  3223
2 29486  55.5070  50.9066 0068746 290.1901  69.1309  2.00551638 13521
GPS BIIRM-3 (PRN 12)    
1 29601U 06052A   08209.03105542 -.00000025  00000-0  10000-3 0  3110
2 29601  55.2520 111.3139 0035428 304.4396  55.2532  2.00575284 12401
GPS BIIRM-4 (PRN 15)    
1 32260U 07047A   08209.33437539 -.00000084  00000-0  00000+0 0  1227
2 32260  54.8665 350.4740 0008974 285.2150  74.6911  2.00563723  5802
GPS BIIRM-5 (PRN 29)    
1 32384U 07062A   08209.15822761  .00000062  00000-0  10000-3 0  1282
2 32384  54.9916 172.3744 0039869 279.5879  79.9474  2.00567790  4523
GPS BIIRM-6 (PRN 07)    
1 32711U 08012A   08209.74979864 -.00000036  00000-0  10000-3 0   599
2 32711  55.1904  51.1424 0018066 156.3864 203.7577  2.00560009  2747
